ONEWEB-0267             
1 48985U 21060U   26016.22283730 -.00000014  00000+0 -69672-4 0  9995
2 48985  87.9028 259.0280 0001391  71.6962 288.4320 13.16595420219590
ONEWEB-0268             
1 48986U 21060V   26016.19116916  .00000035  00000+0  58034-4 0  9994
2 48986  87.9030 259.0439 0001501  75.5027 284.6270 13.16594554219856
ONEWEB-0269             
1 48987U 21060W   26016.17217020  .00000009  00000+0 -10360-4 0  9993
2 48987  87.9021 259.0661 0001698  80.2246 279.9076 13.16595833219624
ONEWEB-0270             
1 48988U 21060X   26016.26559228  .00000066  00000+0  14014-3 0  9994
2 48988  87.9029 259.0308 0001084  71.7491 288.3758 13.16594719219675
ONEWEB-0271             
1 48989U 21060Y   26016.17692811  .00000046  00000+0  86430-4 0  9991
2 48989  87.9031 259.0380 0001331  71.2599 288.8676 13.16595087219660
ONEWEB-0272             
1 48990U 21060Z   26016.19908839  .00000105  00000+0  24226-3 0  9995
2 48990  87.9026 259.0466 0001520  69.7706 290.3589 13.16594817219619
ONEWEB-0273             
1 48991U 21060AA  26016.22126159  .00000010  00000+0 -71874-5 0  9996
2 48991  87.9033 259.0390 0001313  74.6727 285.4549 13.16595498219596
ONEWEB-0274             
1 48992U 21060AB  26016.17059219 -.00000021  00000+0 -87999-4 0  9990
2 48992  87.9019 259.0686 0001733  70.8547 289.2772 13.16594568219624
